XRISM                   
1 57800U 23137A   24057.13463560  .00006163  00000+0  48056-3 0  9993
2 57800  31.0050   5.0529 0010065 181.3859 178.6750 14.99734660 25841
